NORAD_CAT_ID,OBJECT_NAME,OBJECT_TYPE,EPOCH,MEAN_MOTION,ECCENTRICITY,INCLINATION,RA_OF_ASC_NODE,ARG_OF_PERICENTER,MEAN_ANOMALY,BSTAR,MEAN_MOTION_DOT,MEAN_MOTION_DDOT,TLE_LINE0,TLE_LINE1,TLE_LINE2,SEMIMAJOR_AXIS,PERIOD,APOGEE,PERIGEE,DECAYED
53740.0,STARLINK-4607,PAYLOAD,2022-09-22 06:00:00,15.73185092,0.0001448,53.2138,188.2514,118.1124,294.2952,0.00030859,0.00042882,0.0,0 STARLINK-4607,1 53740U 22107AS  22265.25001157  .00042882  00000-0  30859-3 0  9991,2 53740  53.2138 188.2514 0001448 118.1124 294.2952 15.73185092  2801,6727.938,91.534,350.777,348.82800000000015,0.0
53740.0,STARLINK-4607,PAYLOAD,2022-09-22 14:00:01,15.73163345,0.0001634,53.2138,186.5999,127.9325,13.4151,0.00034147,0.000475,0.0,0 STARLINK-4607,1 53740U 22107AS  22265.58334491  .00047500  00000-0  34147-3 0  9993,2 53740  53.2138 186.5999 0001634 127.9325  13.4151 15.73163345  1300,6728.0,91.535,350.964,348.765,0.0
53740.0,STARLINK-4607,PAYLOAD,2022-09-22 22:00:00,15.73213806,0.0001728,53.2141,184.9511,126.6842,103.5625,0.0001876999999999,0.00025819,0.0,0 STARLINK-4607,1 53740U 22107AS  22265.91667824  .00025819  00000-0  18770-3 0  9992,2 53740  53.2141 184.9511 0001728 126.6842 103.5625 15.73213806  1305,6727.856,91.532,350.8830000000001,348.55800000000005,0.0
53740.0,STARLINK-4607,PAYLOAD,2022-09-23 14:00:01,15.73193202,0.0001501,53.2147,181.6512,137.4536,270.73,0.00053293,0.00074821,0.0,0 STARLINK-4607,1 53740U 22107AS  22266.58334491  .00074821  00000-0  53293-3 0  9993,2 53740  53.2147 181.6512 0001501 137.4536 270.7300 15.73193202  3019,6727.915,91.534,350.789,348.77,0.0
53740.0,STARLINK-4607,PAYLOAD,2022-09-23 20:00:01,15.73277112,0.0001556,53.2158,180.4135,135.0733,249.863,-0.00043055,-0.00060811,0.0,0 STARLINK-4607,1 53740U 22107AS  22266.83335648 -.00060811  00000-0 -43055-3 0  9997,2 53740  53.2158 180.4135 0001556 135.0733 249.8630 15.73277112  1308,6727.675,91.529,350.587,348.494,0.0
53740.0,STARLINK-4607,PAYLOAD,2022-09-24 06:00:00,15.73240046,0.0001213,53.2143,178.3538,132.5699,93.5759,-0.00010502,-0.00015357,0.0,0 STARLINK-4607,1 53740U 22107AS  22267.25001157 -.00015357  00000-0 -10502-3 0  9995,2 53740  53.2143 178.3538 0001213 132.5699  93.5759 15.73240046  3122,6727.781,91.531,350.462,348.83,0.0
53740.0,STARLINK-4607,PAYLOAD,2022-09-24 14:00:01,15.73222559,0.0001499,53.2143,176.7022,139.3566,175.8286,0.00013356,0.00018183,0.0,0 STARLINK-4607,1 53740U 22107AS  22267.58335648  .00018183  00000-0  13356-3 0  9994,2 53740  53.2143 176.7022 0001499 139.3566 175.8286 15.73222559  1302,6727.831,91.532,350.704,348.68699999999984,0.0
53740.0,STARLINK-4607,PAYLOAD,2022-09-24 22:00:00,15.73361616,0.0001428,53.2159,175.0531,126.3503,277.7105,-0.0029275,-0.00395493,0.0,0 STARLINK-4607,1 53740U 22107AS  22267.91667824 -.00395493  00000-0 -29275-2 0  9995,2 53740  53.2159 175.0531 0001428 126.3503 277.7105 15.73361616  1305,6727.434,91.524,350.26,348.339,0.0
53740.0,STARLINK-4607,PAYLOAD,2022-09-25 06:00:00,15.72989211,0.0001551,53.2162,173.4055,140.4837,352.565,-0.0036012,-0.00474262,0.0,0 STARLINK-4607,1 53740U 22107AS  22268.25001157 -.00474262  00000-0 -36012-2 0  9993,2 53740  53.2162 173.4055 0001551 140.4837 352.5650 15.72989211  3288,6728.496,91.545,351.405,349.3180000000001,0.0
53740.0,STARLINK-4607,PAYLOAD,2022-09-25 14:00:01,15.72715182,0.0001851,53.2174,171.7538,147.9508,73.5907,-0.0096267,-0.01175733,0.0,0 STARLINK-4607,1 53740U 22107AS  22268.58334491 -.01175733  00000-0 -96267-2 0  9999,2 53740  53.2174 171.7538 0001851 147.9508  73.5907 15.72715182  1308,6729.278,91.561,352.38800000000015,349.897,0.0
53740.0,STARLINK-4607,PAYLOAD,2022-09-25 22:00:01,15.71859415,0.0001415,53.2176,170.1078,136.4511,172.9756,-0.010005,-0.01197527,0.0,0 STARLINK-4607,1 53740U 22107AS  22268.91668981 -.01197527  00000-0 -10005-1 0  9990,2 53740  53.2176 170.1078 0001415 136.4511 172.9756 15.71859415  1308,6731.72,91.611,354.537,352.63199999999995,0.0
53740.0,STARLINK-4607,PAYLOAD,2022-09-26 10:00:00,15.70575239,0.0001576999999999,53.2173,167.6402,139.3421,119.8193,-0.010593,-0.01200426,0.0,0 STARLINK-4607,1 53740U 22107AS  22269.41667824 -.01200426  00000-0 -10593-1 0  9996,2 53740  53.2173 167.6402 0001577 139.3421 119.8193 15.70575239  3460,6735.389,91.686,358.316,356.19199999999995,0.0
53740.0,STARLINK-4607,PAYLOAD,2022-09-26 14:00:01,15.7014322,0.0001411,53.2173,166.8181,134.3773,347.5372,-0.010724,-0.01193975,0.0,0 STARLINK-4607,1 53740U 22107AS  22269.58334491 -.01193975  00000-0 -10724-1 0  9991,2 53740  53.2173 166.8181 0001411 134.3773 347.5372 15.70143220  1308,6736.624,91.711,359.44,357.539,0.0
53740.0,STARLINK-4607,PAYLOAD,2022-09-26 22:00:00,15.69358772,0.0001844999999999,53.2171,165.1784,140.4117,66.1933,-0.0120159999999999,-0.01284298,0.0,0 STARLINK-4607,1 53740U 22107AS  22269.91667824 -.01284298  00000-0 -12016-1 0  9992,2 53740  53.2171 165.1784 0001845 140.4117  66.1933 15.69358772  1303,6738.869000000002,91.757,361.977,359.491,0.0
53740.0,STARLINK-4607,PAYLOAD,2022-09-27 06:00:00,15.68473101,0.0001457,53.2164,163.5404,139.5905,150.7317,-0.012101,-0.01250261,0.0,0 STARLINK-4607,1 53740U 22107AS  22270.25001157 -.01250261  00000-0 -12101-1 0  9990,2 53740  53.2164 163.5404 0001457 139.5905 150.7317 15.68473101  3591,6741.406,91.809,364.253,362.288,0.0
53740.0,STARLINK-4607,PAYLOAD,2022-09-27 14:00:01,15.67575586,0.0001347,53.2168,161.9016,141.7839,231.2298,-0.011959,-0.01196445,0.0,0 STARLINK-4607,1 53740U 22107AS  22270.58334491 -.01196445  00000-0 -11959-1 0  9999,2 53740  53.2168 161.9016 0001347 141.7839 231.2298 15.67575586  1304,6743.979,91.862,366.752,364.935,0.0
53740.0,STARLINK-4607,PAYLOAD,2022-09-27 22:00:01,15.66756092,0.000165,53.2171,160.268,146.3336,308.3657,-0.012911,-0.01243843,0.0,0 STARLINK-4607,1 53740U 22107AS  22270.91668981 -.01243843  00000-0 -12911-1 0  9994,2 53740  53.2171 160.2680 0001650 146.3336 308.3657 15.66756092  3700,6746.33,91.91,369.3080000000001,367.082,0.0
53740.0,STARLINK-4607,PAYLOAD,2022-09-28 14:00:01,15.65000328,0.0001568,53.2174,157.0031,136.6544,118.1952,-0.013219,-0.01191724,0.0,0 STARLINK-4607,1 53740U 22107AS  22271.58334491 -.01191724  00000-0 -13219-1 0  9996,2 53740  53.2174 157.0031 0001568 136.6544 118.1952 15.65000328  1300,6751.375,92.013,374.298,372.181,0.0
53740.0,STARLINK-4607,PAYLOAD,2022-09-28 22:00:00,15.64164677,0.0001781999999999,53.217,155.3762,152.3338,181.0549,-0.0140229999999999,-0.01219587,0.0,0 STARLINK-4607,1 53740U 22107AS  22271.91667824 -.01219587  00000-0 -14023-1 0  9994,2 53740  53.2170 155.3762 0001782 152.3338 181.0549 15.64164677  1300,6753.779,92.062,376.848,374.441,0.0
53740.0,STARLINK-4607,PAYLOAD,2022-09-29 06:00:00,15.63316607,0.0001226,53.2162,153.7503,138.5551,272.3487,-0.014637,-0.01229403,0.0,0 STARLINK-4607,1 53740U 22107AS  22272.25001157 -.01229403  00000-0 -14637-1 0  9992,2 53740  53.2162 153.7503 0001226 138.5551 272.3487 15.63316607  3906,6756.222,92.112,378.915,377.258,0.0
53740.0,STARLINK-4607,PAYLOAD,2022-09-29 14:00:01,15.62429525,0.0001485,53.2172,152.1238,133.9981,353.4138,-0.014648,-0.01192178,0.0,0 STARLINK-4607,1 53740U 22107AS  22272.58334491 -.01192178  00000-0 -14648-1 0  9998,2 53740  53.2172 152.1238 0001485 133.9981 353.4138 15.62429525  1307,6758.779,92.164,381.647,379.64,0.0
53740.0,STARLINK-4607,PAYLOAD,2022-09-29 22:00:00,15.61679381,0.0001895,53.2167,150.5034,141.3174,61.4969,-0.016973,-0.01347364,0.0,0 STARLINK-4607,1 53740U 22107AS  22272.91667824 -.01347364  00000-0 -16973-1 0  9996,2 53740  53.2167 150.5034 0001895 141.3174  61.4969 15.61679381  1303,6760.943,92.208,384.089,381.527,0.0
53740.0,STARLINK-4607,PAYLOAD,2022-09-30 06:00:02,15.60717023,0.0001878,53.2172,148.8828,149.2443,128.1227,-0.015684,-0.01193898,0.0,0 STARLINK-4607,1 53740U 22107AS  22273.25002315 -.01193898  00000-0 -15684-1 0  9991,2 53740  53.2172 148.8828 0001878 149.2443 128.1227 15.60717023  4066,6763.722,92.265,386.857,384.316,0.0
53740.0,STARLINK-4607,PAYLOAD,2022-09-30 14:00:01,15.59862271,0.0001452,53.2167,147.2634,138.6432,212.0581,-0.016235,-0.01195341,0.0,0 STARLINK-4607,1 53740U 22107AS  22273.58334491 -.01195341  00000-0 -16235-1 0  9998,2 53740  53.2167 147.2634 0001452 138.6432 212.0581 15.59862271  1300,6766.191999999999,92.316,389.04,387.075,0.0
53740.0,STARLINK-4607,PAYLOAD,2022-09-30 22:00:00,15.59047105,0.0001672,53.217,145.6489,146.1748,276.8764,-0.017621,-0.01250987,0.0,0 STARLINK-4607,1 53740U 22107AS  22273.91667824 -.01250987  00000-0 -17621-1 0  9992,2 53740  53.2170 145.6489 0001672 146.1748 276.8764 15.59047105  1304,6768.551,92.364,391.547,389.284,0.0
53740.0,STARLINK-4607,PAYLOAD,2022-10-01 06:00:00,15.58161609,0.0001372,53.2163,144.0348,126.6338,7.7719,-0.017606,-0.01212641,0.0,0 STARLINK-4607,1 53740U 22107AS  22274.25001157 -.01212641  00000-0 -17606-1 0  9999,2 53740  53.2163 144.0348 0001372 126.6338   7.7719 15.58161609  4228,6771.115,92.417,393.909,392.051,0.0
53740.0,STARLINK-4607,PAYLOAD,2022-10-01 14:00:01,15.57286345,0.0001607,53.2174,142.4212,131.9571,72.7695,-0.017805,-0.01189086,0.0,0 STARLINK-4607,1 53740U 22107AS  22274.58334491 -.01189086  00000-0 -17805-1 0  9992,2 53740  53.2174 142.4212 0001607 131.9571  72.7695 15.57286345  1306,6773.651999999999,92.469,396.605,394.42800000000005,0.0
53740.0,STARLINK-4607,PAYLOAD,2022-10-01 22:00:00,15.56453292,0.000184,53.2169,140.8134,145.0384,128.9555,-0.018903,-0.01220023,0.0,0 STARLINK-4607,1 53740U 22107AS  22274.91667824 -.01220023  00000-0 -18903-1 0  9995,2 53740  53.2169 140.8134 0001840 145.0384 128.9555 15.56453292  1307,6776.068,92.518,399.18,396.687,0.0
53740.0,STARLINK-4607,PAYLOAD,2022-10-02 06:00:00,15.55585512,0.0001385,53.2164,139.2052,138.6469,203.604,-0.01929,-0.01206613,0.0,0 STARLINK-4607,1 53740U 22107AS  22275.25001157 -.01206613  00000-0 -19290-1 0  9993,2 53740  53.2164 139.2052 0001385 138.6469 203.6040 15.55585512  4379,6778.5880000000025,92.57,401.392,399.514,0.0
